      2.10          N: GNSS NAV DATA                        RINEX VERSION / TYPE
fic2rin                                 09/20/2019 00:19:32 PGM / RUN BY / DATE
                                                            END OF HEADER
24 19  9 19 16  0  0.0-2.359505742788e-06-4.547473508865e-13 0.000000000000e+00
    1.900000000000e+01 8.987500000000e+01 4.728054085288e-09-2.823941298616e+00
    4.580244421959e-06 8.675786899403e-03 9.274110198021e-06 5.153707782745e+03
    4.032000000000e+05-1.862645149231e-09-1.903622138943e+00-6.332993507385e-08
    9.377578965805e-01 1.879687500000e+02 6.064391475275e-01-8.079265105250e-09
    1.210764718925e-10 1.000000000000e+00 2.071000000000e+03 0.000000000000e+00
    2.400000000000e+00 0.000000000000e+00 2.793967723846e-09 1.900000000000e+01
    3.960000000000e+05 4.000000000000e+00
22 19  9 19 16  0  0.0-7.563866674900e-04-3.751665644813e-12 0.000000000000e+00
    6.400000000000e+01-1.656250000000e+00 5.588089909232e-09-1.833572224603e+00
    1.303851604462e-08 6.919967127033e-03 5.654990673065e-06 5.153698764801e+03
    4.032000000000e+05-7.078051567078e-08 2.263351649475e+00 1.695007085800e-07
    9.282756112281e-01 2.515625000000e+02-1.284229510137e+00-8.548213210249e-09
    7.286017777600e-11 1.000000000000e+00 2.071000000000e+03 0.000000000000e+00
    2.400000000000e+00 0.000000000000e+00-1.816079020500e-08 6.400000000000e+01
    3.960000000000e+05 4.000000000000e+00
27 19  9 19 16  0  0.0-6.075762212276e-05-1.227817847393e-11 0.000000000000e+00
    4.300000000000e+01-7.071875000000e+01 4.098742157634e-09-9.231206448687e-01
   -3.609806299210e-06 7.194462348707e-03 7.446855306625e-06 5.153655160904e+03
    4.032000000000e+05 2.123415470123e-07 2.432193061004e-01 5.587935447693e-08
    9.788637192487e-01 2.441250000000e+02 5.126846777061e-01-7.992832933574e-09
   -1.146476326769e-10 1.000000000000e+00 2.071000000000e+03 0.000000000000e+00
    2.400000000000e+00 0.000000000000e+00 1.396983861923e-09 4.300000000000e+01
    3.960000000000e+05 4.000000000000e+00
30 19  9 19 16  0  0.0-4.405435174704e-05-7.958078640513e-12 0.000000000000e+00
    6.700000000000e+01 7.443750000000e+01 4.841273087028e-09 2.482614889367e+00
    3.812834620476e-06 4.204327822663e-03 8.154660463333e-06 5.153759017944e+03
    4.032000000000e+05-5.774199962616e-08-1.809230966212e+00-9.313225746155e-09
    9.399137770101e-01 2.130000000000e+02-2.899709253558e+00-8.221056725725e-09
    4.464471677451e-11 1.000000000000e+00 2.071000000000e+03 0.000000000000e+00
    2.400000000000e+00 0.000000000000e+00 3.725290298462e-09 6.700000000000e+01
    3.960000000000e+05 4.000000000000e+00
15 19  9 19 16  0  0.0-2.858187071979e-04 2.728484105319e-12 0.000000000000e+00
    4.400000000000e+01-2.228125000000e+01 5.235932383315e-09-1.820127891884e+00
   -1.201406121254e-06 1.171783299651e-02 8.648261427879e-06 5.153566596985e+03
    4.032000000000e+05 1.583248376846e-07-2.993956328859e+00-7.636845111847e-08
    9.284872428091e-01 1.936562500000e+02 8.098751264584e-01-8.192484106990e-09
   -3.250135381184e-10 1.000000000000e+00 2.071000000000e+03 0.000000000000e+00
    2.400000000000e+00 0.000000000000e+00-1.071020960808e-08 4.400000000000e+01
    3.960000000000e+05 4.000000000000e+00
14 19  9 19 16  0  0.0-6.048893555999e-05 2.046363078989e-12 0.000000000000e+00
    3.400000000000e+01-7.968750000000e+00 4.543046378974e-09-1.192803166183e+00
   -4.321336746216e-07 1.077196223196e-02 9.970739483833e-06 5.153746824265e+03
    4.032000000000e+05 8.009374141693e-08-2.817267987137e+00 2.477318048477e-07
    9.608844721466e-01 1.892187500000e+02-1.931184252867e+00-8.040692069956e-09
   -4.857345185067e-10 1.000000000000e+00 2.071000000000e+03 0.000000000000e+00
    2.400000000000e+00 0.000000000000e+00-9.778887033463e-09 3.400000000000e+01
    3.960000000000e+05 4.000000000000e+00
21 19  9 19 16  0  0.0-1.161606051028e-04 6.480149750132e-12 0.000000000000e+00
    5.000000000000e+01-1.809375000000e+01 4.850202030383e-09 1.328284666354e+00
   -1.257285475731e-06 2.447980898432e-02 9.709969162941e-06 5.153659074783e+03
    4.032000000000e+05-7.450580596924e-09 1.230979612430e+00-6.426125764847e-07
    9.497124257117e-01 1.899062500000e+02-1.411446016163e+00-8.253915237271e-09
    4.575190575052e-10 1.000000000000e+00 2.071000000000e+03 0.000000000000e+00
    2.400000000000e+00 0.000000000000e+00-1.024454832077e-08 5.000000000000e+01
    3.960000000000e+05 4.000000000000e+00
19 19  9 19 16  0  0.0-2.650842070580e-04 5.229594535194e-12 0.000000000000e+00
    3.900000000000e+01-6.734375000000e+01 3.947307278335e-09 1.760175926118e+00
   -3.632158041000e-06 9.393635904416e-03 8.367002010345e-06 5.153651445389e+03
    4.032000000000e+05 3.352761268616e-08 3.460550095973e-01-2.030283212662e-07
    9.824279128774e-01 2.298437500000e+02 1.502634703224e+00-7.737465153624e-09
   -4.678766317969e-11 1.000000000000e+00 2.071000000000e+03 0.000000000000e+00
    2.400000000000e+00 0.000000000000e+00-1.536682248116e-08 3.900000000000e+01
    3.960000000000e+05 4.000000000000e+00
13 19  9 19 16  0  0.0-4.346668720245e-05 2.046363078989e-12 0.000000000000e+00
    8.400000000000e+01-1.125000000000e+00 4.228747572882e-09-1.813918879882e+00
   -1.098960638046e-07 3.784099128097e-03 1.023896038532e-05 5.153669553757e+03
    4.032000000000e+05 1.136213541031e-07-2.772082160555e+00 2.793967723846e-08
    9.682956648754e-01 1.878750000000e+02 1.208322537015e+00-7.750322832055e-09
   -4.103742365913e-10 1.000000000000e+00 2.071000000000e+03 0.000000000000e+00
    3.400000000000e+00 0.000000000000e+00-1.117587089539e-08 8.400000000000e+01
    3.960000000000e+05 4.000000000000e+00
11 19  9 19 16  0  0.0-5.024936981499e-04 1.091393642128e-11 0.000000000000e+00
    7.300000000000e+01-3.687500000000e+01 5.498086160215e-09 2.413391191659e+00
   -1.970678567886e-06 1.667468855157e-02 8.612871170044e-06 5.153731441498e+03
    4.032000000000e+05 2.309679985046e-07 8.400503426915e-01-5.587935447693e-09
    9.106151720113e-01 1.844375000000e+02 1.945969279786e+00-8.239986085638e-09
    7.607459738377e-11 1.000000000000e+00 2.071000000000e+03 0.000000000000e+00
    3.400000000000e+00 0.000000000000e+00-1.210719347000e-08 7.300000000000e+01
    3.960000000000e+05 4.000000000000e+00
31 19  9 19 16  0  0.0 9.302981197834e-06-2.614797267597e-12 0.000000000000e+00
    4.800000000000e+01 8.675000000000e+01 4.380539609915e-09 2.237713743885e+00
    4.552304744720e-06 9.347926243208e-03 9.443610906601e-06 5.153702129364e+03
    4.032000000000e+05-8.568167686462e-08-1.821156528102e+00 8.940696716309e-08
    9.590196641384e-01 1.993437500000e+02 2.829754624924e-02-7.998547457321e-09
    1.000041655749e-11 1.000000000000e+00 2.071000000000e+03 0.000000000000e+00
    2.400000000000e+00 0.000000000000e+00-1.350417733192e-08 4.800000000000e+01
    3.960000000000e+05 4.000000000000e+00
29 19  9 19 16  0  0.0 9.356532245874e-05-1.023181539495e-11 0.000000000000e+00
    6.300000000000e+01-7.318750000000e+01 3.894805091408e-09-6.979768766014e-01
   -4.028901457787e-06 1.178739126772e-03 8.780509233475e-06 5.153696239471e+03
    4.032000000000e+05 7.450580596924e-09 3.113685402181e-01 2.980232238770e-08
    9.860169980572e-01 2.263750000000e+02 2.009265928322e+00-7.826754587173e-09
   -8.643217167545e-11 1.000000000000e+00 2.071000000000e+03 0.000000000000e+00
    2.400000000000e+00 0.000000000000e+00-9.778887033463e-09 6.300000000000e+01
    3.960000000000e+05 4.000000000000e+00
18 19  9 19 16  0  0.0 8.692126721144e-05 2.842170943040e-12 0.000000000000e+00
    7.300000000000e+01-1.315625000000e+01 4.604834666990e-09 2.902523925498e+00
   -7.469207048416e-07 1.570287765935e-02 8.847564458847e-06 5.153675535202e+03
    4.032000000000e+05 2.328306436539e-07 1.240755625401e+00-1.788139343262e-07
    9.553572282461e-01 2.027812500000e+02 1.433753334198e+00-7.804967965387e-09
    3.203704875739e-10 1.000000000000e+00 2.071000000000e+03 0.000000000000e+00
    3.400000000000e+00 0.000000000000e+00-5.587935447693e-09 7.300000000000e+01
    3.960000000000e+05 4.000000000000e+00
12 19  9 19 16  0  0.0 2.024215646088e-04-3.751665644813e-12 0.000000000000e+00
    5.800000000000e+01 6.625000000000e+00 4.200174954146e-09 1.868039879473e+00
    2.626329660416e-07 7.475964492187e-03 3.447756171227e-06 5.153577812195e+03
    4.032000000000e+05-8.381903171539e-08-7.331309575042e-01-1.993030309677e-07
    9.813551374948e-01 3.231562500000e+02 1.106655236930e+00-8.168554538799e-09
    3.571577341961e-11 1.000000000000e+00 2.071000000000e+03 0.000000000000e+00
    2.400000000000e+00 0.000000000000e+00-1.257285475731e-08 5.800000000000e+01
    3.960000000000e+05 4.000000000000e+00
32 19  9 19 16  0  0.0 6.257556378841e-05 1.352873368887e-11 0.000000000000e+00
    8.900000000000e+01-1.781250000000e+01 4.693052627337e-09-1.924854768099e-01
   -1.007691025734e-06 3.232474555261e-03 9.482726454735e-06 5.153628305435e+03
    4.032000000000e+05 6.146728992462e-08-2.903786191196e+00 2.980232238770e-08
    9.571874119092e-01 1.950000000000e+02-2.505390428962e+00-8.106766250783e-09
   -4.753769442150e-10 1.000000000000e+00 2.071000000000e+03 0.000000000000e+00
    2.400000000000e+00 0.000000000000e+00 4.656612873077e-10 8.900000000000e+01
    3.960000000000e+05 4.000000000000e+00
17 19  9 19 16  0  0.0 1.285728067160e-04 7.275957614183e-12 0.000000000000e+00
    6.800000000000e+01-5.615625000000e+01 4.009095566351e-09-1.009876122537e+00
   -2.717599272728e-06 1.312084123492e-02 8.294358849525e-06 5.153574310303e+03
    4.032000000000e+05-2.011656761169e-07 3.000527942661e-01 2.142041921616e-07
    9.844939101573e-01 2.363437500000e+02-1.703603318671e+00-7.982118201548e-09
   -4.607334771129e-11 1.000000000000e+00 2.071000000000e+03 0.000000000000e+00
    2.400000000000e+00 0.000000000000e+00-1.117587089539e-08 6.800000000000e+01
    3.960000000000e+05 4.000000000000e+00
